SL-8 R/B                
1 19257U 88053B   26080.48590765  .00000316  00000+0  11072-3 0  9991
2 19257  74.0450  90.7204 0021540 268.4666 205.5772 14.38923655978297
COSMOS 1975             
1 19573U 88093A   26080.77325246  .00007683  00000+0  27757-3 0  9999
2 19573  82.5160 105.5511 0013112 124.0464 236.2023 15.28222899 21252
SL-14 R/B               
1 19574U 88093B   26080.92003979  .00000544  00000+0  59768-4 0  9990
2 19574  82.5329  30.5636 0020735   2.2652  57.7384 14.85670664  2838
SL-16 R/B               
1 19650U 88102B   26080.55966476 -.00000189  00000+0 -71162-4 0  9994
2 19650  70.9986 126.5225 0014800 343.1373  16.9256 14.16155551928576
INTERCOSMOS 24          
1 20261U 89080A   26080.79659457  .00000544  00000+0  16159-3 0  9991
2 20261  82.6015  96.5180 1186719 264.6907  81.8001 12.59574300668320
SL-14 R/B               
1 20262U 89080C   26080.95881735  .00000416  00000+0  11785-3 0  9994
2 20262  82.5967 165.3133 1230844 156.7172 209.4977 12.50506204661684
DELTA 1 R/B             
1 20323U 89089B   26080.82952148  .00000336  00000+0  91320-4 0  9999
2 20323  97.0696 286.3365 0070711  84.3742 276.5515 14.50672975897490
ARIANE 40 R/B           
1 20443U 90005H   26080.90495190  .00000230  00000+0  86703-4 0  9992
2 20443  98.3057 141.2009 0010619 161.8753 198.2816 14.39877901894568
DELTA 2 R/B(1)          
1 20453U 90008B   26080.75191062  .00071464  00000+0  80084-3 0  9992
2 20453  35.6029  95.5963 0080677  10.6768 349.5661 15.57484619928018
COSMOS 2058             
1 20465U 90010A   26080.89638100  .00005225  00000+0  30750-3 0  9999
2 20465  82.4680  35.3989 0007737 299.7173  60.3286 15.11423579944084
SL-14 R/B               
1 20466U 90010B   26080.75979888  .00000460  00000+0  52901-4 0  9995
2 20466  82.4988 256.0473 0018351 259.3819 100.5329 14.83579385930275
SL-14 R/B               
1 20511U 90018B   26080.85673480  .00000470  00000+0  55993-4 0  9999
2 20511  82.5225 211.7186 0017370  55.1007 305.1836 14.82156974924386
HST                     
1 20580U 90037B   26080.94796918  .00009017  00000+0  29689-3 0  9996
2 20580  28.4725 316.3669 0001497 262.8571  97.1855 15.29665795775190
SL-16 R/B               
1 20625U 90046B   26080.92688679  .00000105  00000+0  79019-4 0  9990
2 20625  70.9953 272.2118 0016233 283.5104  76.4210 14.15012271850121
COSMOS 2084             
1 20663U 90055A   26080.94194133  .00002654  00000+0  19611-3 0  9993
2 20663  62.7895 293.7878 0015162 193.5115 166.5582 15.05713842938166
SL-6 R/B(2)             
1 20666U 90055D   26080.80836491  .00002392  00000+0  18718-3 0  9997
2 20666  62.7832 212.6362 0026775 349.8961  10.1596 15.03650957940016
SL-8 R/B                
1 20775U 90078B   26080.93798892  .00018386  00000+0  54403-3 0  9990
2 20775  82.9017 240.2895 0359710 332.7304  25.5415 14.89435662811120
