[{"OBJECT_NAME":"SL-8 R/B","OBJECT_ID":"1988-053B","EPOCH":"2026-03-21T11:39:42.420960","MEAN_MOTION":14.38923655,"ECCENTRICITY":0.00215401,"INCLINATION":74.045,"RA_OF_ASC_NODE":90.7204,"ARG_OF_PERICENTER":268.4666,"MEAN_ANOMALY":205.5772,"EPHEMERIS_TYPE":0,"CLASSIFICATION_TYPE":"U","NORAD_CAT_ID":19257,"ELEMENT_SET_NO":999,"REV_AT_EPOCH":97829,"BSTAR":0.00011072232,"MEAN_MOTION_DOT":3.16e-6,"MEAN_MOTION_DDOT":0},{"OBJECT_NAME":"COSMOS 1975","OBJECT_ID":"1988-093A","EPOCH":"2026-03-21T18:33:29.012544","MEAN_MOTION":15.28222899,"ECCENTRICITY":0.0013112,"INCLINATION":82.516,"RA_OF_ASC_NODE":105.5511,"ARG_OF_PERICENTER":124.0464,"MEAN_ANOMALY":236.2023,"EPHEMERIS_TYPE":0,"CLASSIFICATION_TYPE":"U","NORAD_CAT_ID":19573,"ELEMENT_SET_NO":999,"REV_AT_EPOCH":2125,"BSTAR":0.00027756685,"MEAN_MOTION_DOT":7.683e-5,"MEAN_MOTION_DDOT":0},{"OBJECT_NAME":"SL-14 R/B","OBJECT_ID":"1988-093B","EPOCH":"2026-03-21T22:04:51.437856","MEAN_MOTION":14.85670664,"ECCENTRICITY":0.00207356,"INCLINATION":82.5329,"RA_OF_ASC_NODE":30.5636,"ARG_OF_PERICENTER":2.2652,"MEAN_ANOMALY":57.7384,"EPHEMERIS_TYPE":0,"CLASSIFICATION_TYPE":"U","NORAD_CAT_ID":19574,"ELEMENT_SET_NO":999,"REV_AT_EPOCH":283,"BSTAR":5.9767828e-5,"MEAN_MOTION_DOT":5.44e-6,"MEAN_MOTION_DDOT":0},{"OBJECT_NAME":"SL-16 R/B","OBJECT_ID":"1988-102B","EPOCH":"2026-03-21T13:25:55.035264","MEAN_MOTION":14.16155551,"ECCENTRICITY":0.00148007,"INCLINATION":70.9986,"RA_OF_ASC_NODE":126.5225,"ARG_OF_PERICENTER":343.1373,"MEAN_ANOMALY":16.9256,"EPHEMERIS_TYPE":0,"CLASSIFICATION_TYPE":"U","NORAD_CAT_ID":19650,"ELEMENT_SET_NO":999,"REV_AT_EPOCH":92857,"BSTAR":-7.1162155e-5,"MEAN_MOTION_DOT":-1.89e-6,"MEAN_MOTION_DDOT":0},{"OBJECT_NAME":"INTERCOSMOS 24","OBJECT_ID":"1989-080A","EPOCH":"2026-03-21T19:07:05.770848","MEAN_MOTION":12.595743,"ECCENTRICITY":0.11867198,"INCLINATION":82.6015,"RA_OF_ASC_NODE":96.518,"ARG_OF_PERICENTER":264.6907,"MEAN_ANOMALY":81.8001,"EPHEMERIS_TYPE":0,"CLASSIFICATION_TYPE":"U","NORAD_CAT_ID":20261,"ELEMENT_SET_NO":999,"REV_AT_EPOCH":66832,"BSTAR":0.00016159328,"MEAN_MOTION_DOT":5.44e-6,"MEAN_MOTION_DDOT":0},{"OBJECT_NAME":"SL-14 R/B","OBJECT_ID":"1989-080C","EPOCH":"2026-03-21T23:00:41.819040","MEAN_MOTION":12.50506204,"ECCENTRICITY":0.12308442,"INCLINATION":82.5967,"RA_OF_ASC_NODE":165.3133,"ARG_OF_PERICENTER":156.7172,"MEAN_ANOMALY":209.4977,"EPHEMERIS_TYPE":0,"CLASSIFICATION_TYPE":"U","NORAD_CAT_ID":20262,"ELEMENT_SET_NO":999,"REV_AT_EPOCH":66168,"BSTAR":0.00011785396,"MEAN_MOTION_DOT":4.16e-6,"MEAN_MOTION_DDOT":0},{"OBJECT_NAME":"DELTA 1 R/B","OBJECT_ID":"1989-089B","EPOCH":"2026-03-21T19:54:30.655872","MEAN_MOTION":14.50672975,"ECCENTRICITY":0.00707112,"INCLINATION":97.0696,"RA_OF_ASC_NODE":286.3365,"ARG_OF_PERICENTER":84.3742,"MEAN_ANOMALY":276.5515,"EPHEMERIS_TYPE":0,"CLASSIFICATION_TYPE":"U","NORAD_CAT_ID":20323,"ELEMENT_SET_NO":999,"REV_AT_EPOCH":89749,"BSTAR":9.1320033e-5,"MEAN_MOTION_DOT":3.36e-6,"MEAN_MOTION_DDOT":0},{"OBJECT_NAME":"ARIANE 40 R/B","OBJECT_ID":"1990-005H","EPOCH":"2026-03-21T21:43:07.844160","MEAN_MOTION":14.39877901,"ECCENTRICITY":0.00106192,"INCLINATION":98.3057,"RA_OF_ASC_NODE":141.2009,"ARG_OF_PERICENTER":161.8753,"MEAN_ANOMALY":198.2816,"EPHEMERIS_TYPE":0,"CLASSIFICATION_TYPE":"U","NORAD_CAT_ID":20443,"ELEMENT_SET_NO":999,"REV_AT_EPOCH":89456,"BSTAR":8.6703232e-5,"MEAN_MOTION_DOT":2.3e-6,"MEAN_MOTION_DDOT":0},{"OBJECT_NAME":"DELTA 2 R/B(1)","OBJECT_ID":"1990-008B","EPOCH":"2026-03-21T18:02:45.077568","MEAN_MOTION":15.57484619,"ECCENTRICITY":0.00806772,"INCLINATION":35.6029,"RA_OF_ASC_NODE":95.5963,"ARG_OF_PERICENTER":10.6768,"MEAN_ANOMALY":349.5661,"EPHEMERIS_TYPE":0,"CLASSIFICATION_TYPE":"U","NORAD_CAT_ID":20453,"ELEMENT_SET_NO":999,"REV_AT_EPOCH":92801,"BSTAR":0.00080083801,"MEAN_MOTION_DOT":0.00071464,"MEAN_MOTION_DDOT":0},{"OBJECT_NAME":"COSMOS 2058","OBJECT_ID":"1990-010A","EPOCH":"2026-03-21T21:30:47.318400","MEAN_MOTION":15.11423579,"ECCENTRICITY":0.00077373,"INCLINATION":82.468,"RA_OF_ASC_NODE":35.3989,"ARG_OF_PERICENTER":299.7173,"MEAN_ANOMALY":60.3286,"EPHEMERIS_TYPE":0,"CLASSIFICATION_TYPE":"U","NORAD_CAT_ID":20465,"ELEMENT_SET_NO":999,"REV_AT_EPOCH":94408,"BSTAR":0.000307496,"MEAN_MOTION_DOT":5.225e-5,"MEAN_MOTION_DDOT":0},{"OBJECT_NAME":"SL-14 R/B","OBJECT_ID":"1990-010B","EPOCH":"2026-03-21T18:14:06.623232","MEAN_MOTION":14.83579385,"ECCENTRICITY":0.00183519,"INCLINATION":82.4988,"RA_OF_ASC_NODE":256.0473,"ARG_OF_PERICENTER":259.3819,"MEAN_ANOMALY":100.5329,"EPHEMERIS_TYPE":0,"CLASSIFICATION_TYPE":"U","NORAD_CAT_ID":20466,"ELEMENT_SET_NO":999,"REV_AT_EPOCH":93027,"BSTAR":5.2901109e-5,"MEAN_MOTION_DOT":4.6e-6,"MEAN_MOTION_DDOT":0},{"OBJECT_NAME":"SL-14 R/B","OBJECT_ID":"1990-018B","EPOCH":"2026-03-21T20:33:41.886720","MEAN_MOTION":14.82156974,"ECCENTRICITY":0.00173703,"INCLINATION":82.5225,"RA_OF_ASC_NODE":211.7186,"ARG_OF_PERICENTER":55.1007,"MEAN_ANOMALY":305.1836,"EPHEMERIS_TYPE":0,"CLASSIFICATION_TYPE":"U","NORAD_CAT_ID":20511,"ELEMENT_SET_NO":999,"REV_AT_EPOCH":92438,"BSTAR":5.5993235e-5,"MEAN_MOTION_DOT":4.7e-6,"MEAN_MOTION_DDOT":0},{"OBJECT_NAME":"HST","OBJECT_ID":"1990-037B","EPOCH":"2026-03-21T22:45:04.537152","MEAN_MOTION":15.29665795,"ECCENTRICITY":0.00014973,"INCLINATION":28.4725,"RA_OF_ASC_NODE":316.3669,"ARG_OF_PERICENTER":262.8571,"MEAN_ANOMALY":97.1855,"EPHEMERIS_TYPE":0,"CLASSIFICATION_TYPE":"U","NORAD_CAT_ID":20580,"ELEMENT_SET_NO":999,"REV_AT_EPOCH":77519,"BSTAR":0.00029688591,"MEAN_MOTION_DOT":9.017e-5,"MEAN_MOTION_DDOT":0},{"OBJECT_NAME":"SL-16 R/B","OBJECT_ID":"1990-046B","EPOCH":"2026-03-21T22:14:43.018656","MEAN_MOTION":14.15012271,"ECCENTRICITY":0.00162338,"INCLINATION":70.9953,"RA_OF_ASC_NODE":272.2118,"ARG_OF_PERICENTER":283.5104,"MEAN_ANOMALY":76.421,"EPHEMERIS_TYPE":0,"CLASSIFICATION_TYPE":"U","NORAD_CAT_ID":20625,"ELEMENT_SET_NO":999,"REV_AT_EPOCH":85012,"BSTAR":7.9019347e-5,"MEAN_MOTION_DOT":1.05e-6,"MEAN_MOTION_DDOT":0},{"OBJECT_NAME":"COSMOS 2084","OBJECT_ID":"1990-055A","EPOCH":"2026-03-21T22:36:23.730912","MEAN_MOTION":15.05713842,"ECCENTRICITY":0.00151623,"INCLINATION":62.7895,"RA_OF_ASC_NODE":293.7878,"ARG_OF_PERICENTER":193.5115,"MEAN_ANOMALY":166.5582,"EPHEMERIS_TYPE":0,"CLASSIFICATION_TYPE":"U","NORAD_CAT_ID":20663,"ELEMENT_SET_NO":999,"REV_AT_EPOCH":93816,"BSTAR":0.000196106,"MEAN_MOTION_DOT":2.654e-5,"MEAN_MOTION_DDOT":0},{"OBJECT_NAME":"SL-6 R/B(2)","OBJECT_ID":"1990-055D","EPOCH":"2026-03-21T19:24:02.728224","MEAN_MOTION":15.03650957,"ECCENTRICITY":0.00267754,"INCLINATION":62.7832,"RA_OF_ASC_NODE":212.6362,"ARG_OF_PERICENTER":349.8961,"MEAN_ANOMALY":10.1596,"EPHEMERIS_TYPE":0,"CLASSIFICATION_TYPE":"U","NORAD_CAT_ID":20666,"ELEMENT_SET_NO":999,"REV_AT_EPOCH":94001,"BSTAR":0.00018717573,"MEAN_MOTION_DOT":2.392e-5,"MEAN_MOTION_DDOT":0},{"OBJECT_NAME":"SL-8 R/B","OBJECT_ID":"1990-078B","EPOCH":"2026-03-21T22:30:42.242688","MEAN_MOTION":14.89435662,"ECCENTRICITY":0.03597105,"INCLINATION":82.9017,"RA_OF_ASC_NODE":240.2895,"ARG_OF_PERICENTER":332.7304,"MEAN_ANOMALY":25.5415,"EPHEMERIS_TYPE":0,"CLASSIFICATION_TYPE":"U","NORAD_CAT_ID":20775,"ELEMENT_SET_NO":999,"REV_AT_EPOCH":81112,"BSTAR":0.00054403381,"MEAN_MOTION_DOT":0.00018386,"MEAN_MOTION_DDOT":0}]
